{"type": "FeatureCollection", "features": [ {"type": "Feature", "properties": {"norad_id": 28659, "name": "DIRECTV 8", "group": "intelsat", "lat": -0.03146766253524484, "lon": -137.65837491758776, "alt_km": 35780.017722613055, "timestamp": "2025-12-20T16:47:35.958652+00:00", "meta": {"OBJECT_NAME": "DIRECTV 8", "OBJECT_ID": "2005-019A", "EPOCH": "2025-12-20T10:08:09.379392", "MEAN_MOTION": 1.00270176, "ECCENTRICITY": 0.0002883, "INCLINATION": 0.0251, "RA_OF_ASC_NODE": 9.5951, "ARG_OF_PERICENTER": 270.6825, "MEAN_ANOMALY": 201.9689, "EPHEMERIS_TYPE": 0, "CLASSIFICATION_TYPE": "U", "NORAD_CAT_ID": 28659, "ELEMENT_SET_NO": 999, "REV_AT_EPOCH": 7528, "BSTAR": 0, "MEAN_MOTION_DOT": 0, "MEAN_MOTION_DDOT": 0}, "tle": {"line1": "1 28659U 05019A   25354.42233078  .00000000  00000+0  00000+0 0  9991", "line2": "2 28659   0.0251   9.5951 0002883 270.6825 201.9689  1.00270176 75281"}}, "geometry": {"type": "Point", "coordinates": [-137.65837491758776, -0.03146766253524484]}}, {"type": "Feature", "properties": {"norad_id": 28702, "name": "GALAXY 28 (G-28)", "group": "intelsat", "lat": 0.39218796477707835, "lon": -107.26199836077018, "alt_km": 35774.77299335223, "timestamp": "2025-12-20T16:47:35.958664+00:00", "meta": {"OBJECT_NAME": "GALAXY 28 (G-28)", "OBJECT_ID": "2005-022A", "EPOCH": "2025-12-20T00:49:30.482112", "MEAN_MOTION": 1.00271047, "ECCENTRICITY": 0.00029384, "INCLINATION": 2.8382, "RA_OF_ASC_NODE": 81.1982, "ARG_OF_PERICENTER": 194.0723, "MEAN_ANOMALY": 97.2981, "EPHEMERIS_TYPE": 0, "CLASSIFICATION_TYPE": "U", "NORAD_CAT_ID": 28702, "ELEMENT_SET_NO": 999, "REV_AT_EPOCH": 5017, "BSTAR": 0, "MEAN_MOTION_DOT": -1.65e-06, "MEAN_MOTION_DDOT": 0}, "tle": {"line1": "1 28702U 05022A   25354.03438058 -.00000165  00000+0  00000+0 0  9999", "line2": "2 28702   2.8382  81.1982 0002938 194.0723  97.2981  1.00271047 50172"}}, "geometry": {"type": "Point", "coordinates": [-107.26199836077018, 0.39218796477707835]}}, {"type": "Feature", "properties": {"norad_id": 29236, "name": "GALAXY 16 (G-16)", "group": "intelsat", "lat": 0.006666339542010975, "lon": -117.59770274856785, "alt_km": 35776.98948600007, "timestamp": "2025-12-20T16:47:35.958676+00:00", "meta": {"OBJECT_NAME": "GALAXY 16 (G-16)", "OBJECT_ID": "2006-023A", "EPOCH": "2025-12-20T12:09:57.868128", "MEAN_MOTION": 1.00271154, "ECCENTRICITY": 0.0002466, "INCLINATION": 0.0202, "RA_OF_ASC_NODE": 181.2175, "ARG_OF_PERICENTER": 88.6621, "MEAN_ANOMALY": 262.9469, "EPHEMERIS_TYPE": 0, "CLASSIFICATION_TYPE": "U", "NORAD_CAT_ID": 29236, "ELEMENT_SET_NO": 999, "REV_AT_EPOCH": 7118, "BSTAR": 0, "MEAN_MOTION_DOT": -1.03e-06, "MEAN_MOTION_DDOT": 0}, "tle": {"line1": "1 29236U 06023A   25354.50691977 -.00000103  00000+0  00000+0 0  9999", "line2": "2 29236   0.0202 181.2175 0002466  88.6621 262.9469  1.00271154 71188"}}, "geometry": {"type": "Point", "coordinates": [-117.59770274856785, 0.006666339542010975]}}, {"type": "Feature", "properties": {"norad_id": 29494, "name": "DIRECTV 9S", "group": "intelsat", "lat": 0.7399351199061052, "lon": -119.79378285119479, "alt_km": 35776.206945697064, "timestamp": "2025-12-20T16:47:35.958688+00:00", "meta": {"OBJECT_NAME": "DIRECTV 9S", "OBJECT_ID": "2006-043A", "EPOCH": "2025-12-20T07:57:38.594016", "MEAN_MOTION": 1.00271657, "ECCENTRICITY": 0.0002824, "INCLINATION": 1.9586, "RA_OF_ASC_NODE": 83.1334, "ARG_OF_PERICENTER": 191.9761, "MEAN_ANOMALY": 192.2576, "EPHEMERIS_TYPE": 0, "CLASSIFICATION_TYPE": "U", "NORAD_CAT_ID": 29494, "ELEMENT_SET_NO": 999, "REV_AT_EPOCH": 4959, "BSTAR": 0, "MEAN_MOTION_DOT": -9.1e-07, "MEAN_MOTION_DDOT": 0}, "tle": {"line1": "1 29494U 06043A   25354.33169669 -.00000091  00000+0  00000+0 0  9992", "line2": "2 29494   1.9586  83.1334 0002824 191.9761 192.2576  1.00271657 49599"}}, "geometry": {"type": "Point", "coordinates": [-119.79378285119479, 0.7399351199061052]}}, {"type": "Feature", "properties": {"norad_id": 31307, "name": "GALAXY 17 (G-17)", "group": "intelsat", "lat": 0.22545155481773152, "lon": -103.53474761980313, "alt_km": 35763.138798260894, "timestamp": "2025-12-20T16:47:35.958699+00:00", "meta": {"OBJECT_NAME": "GALAXY 17 (G-17)", "OBJECT_ID": "2007-016B", "EPOCH": "2025-12-20T11:24:08.214048", "MEAN_MOTION": 1.0027177, "ECCENTRICITY": 0.000543, "INCLINATION": 2.5181, "RA_OF_ASC_NODE": 82.2, "ARG_OF_PERICENTER": 169.9015, "MEAN_ANOMALY": 283.2719, "EPHEMERIS_TYPE": 0, "CLASSIFICATION_TYPE": "U", "NORAD_CAT_ID": 31307, "ELEMENT_SET_NO": 999, "REV_AT_EPOCH": 6801, "BSTAR": 0, "MEAN_MOTION_DOT": -1.85e-06, "MEAN_MOTION_DDOT": 0}, "tle": {"line1": "1 31307U 07016B   25354.47509507 -.00000185  00000+0  00000+0 0  9997", "line2": "2 31307   2.5181  82.2000 0005430 169.9015 283.2719  1.00271770 68010"}}, "geometry": {"type": "Point", "coordinates": [-103.53474761980313, 0.22545155481773152]}}, {"type": "Feature", "properties": {"norad_id": 31862, "name": "DIRECTV 10", "group": "intelsat", "lat": -0.0009781631193939086, "lon": -121.37987376552904, "alt_km": 35785.05455930578, "timestamp": "2025-12-20T16:47:35.958711+00:00", "meta": {"OBJECT_NAME": "DIRECTV 10", "OBJECT_ID": "2007-032A", "EPOCH": "2025-12-20T10:17:47.329728", "MEAN_MOTION": 1.00272197, "ECCENTRICITY": 2.27e-05, "INCLINATION": 0.0081, "RA_OF_ASC_NODE": 103.0199, "ARG_OF_PERICENTER": 118.7646, "MEAN_ANOMALY": 279.1244, "EPHEMERIS_TYPE": 0, "CLASSIFICATION_TYPE": "U", "NORAD_CAT_ID": 31862, "ELEMENT_SET_NO": 999, "REV_AT_EPOCH": 4380, "BSTAR": 0, "MEAN_MOTION_DOT": -7.9e-07, "MEAN_MOTION_DDOT": 0}, "tle": {"line1": "1 31862U 07032A   25354.42902002 -.00000079  00000+0  00000+0 0  9995", "line2": "2 31862   0.0081 103.0199 0000227 118.7646 279.1244  1.00272197 43801"}}, "geometry": {"type": "Point", "coordinates": [-121.37987376552904, -0.0009781631193939086]}}, {"type": "Feature", "properties": {"norad_id": 32253, "name": "INTELSAT 11 (IS-11)", "group": "intelsat", "lat": 3.10461733142745, "lon": 172.0087481383504, "alt_km": 36123.42582214173, "timestamp": "2025-12-20T16:47:35.958722+00:00", "meta": {"OBJECT_NAME": "INTELSAT 11 (IS-11)", "OBJECT_ID": "2007-044B", "EPOCH": "2025-12-20T08:37:38.767872", "MEAN_MOTION": 0.99052252, "ECCENTRICITY": 0.0008535, "INCLINATION": 3.0988, "RA_OF_ASC_NODE": 80.8927, "ARG_OF_PERICENTER": 168.917, "MEAN_ANOMALY": 160.9677, "EPHEMERIS_TYPE": 0, "CLASSIFICATION_TYPE": "U", "NORAD_CAT_ID": 32253, "ELEMENT_SET_NO": 999, "REV_AT_EPOCH": 6667, "BSTAR": 0, "MEAN_MOTION_DOT": -5.8e-07, "MEAN_MOTION_DDOT": 0}, "tle": {"line1": "1 32253U 07044B   25354.35947648 -.00000058  00000+0  00000+0 0  9997", "line2": "2 32253   3.0988  80.8927 0008535 168.9170 160.9677  0.99052252 66677"}}, "geometry": {"type": "Point", "coordinates": [172.0087481383504, 3.10461733142745]}}, {"type": "Feature", "properties": {"norad_id": 32388, "name": "HORIZONS-2", "group": "intelsat", "lat": -0.20482238244597675, "lon": -92.37037181265165, "alt_km": 35766.94687444143, "timestamp": "2025-12-20T16:47:35.958733+00:00", "meta": {"OBJECT_NAME": "HORIZONS-2", "OBJECT_ID": "2007-063B", "EPOCH": "2025-12-20T10:32:03.958944", "MEAN_MOTION": 1.00271723, "ECCENTRICITY": 0.0004587, "INCLINATION": 2.1405, "RA_OF_ASC_NODE": 82.879, "ARG_OF_PERICENTER": 193.7157, "MEAN_ANOMALY": 256.9119, "EPHEMERIS_TYPE": 0, "CLASSIFICATION_TYPE": "U", "NORAD_CAT_ID": 32388, "ELEMENT_SET_NO": 999, "REV_AT_EPOCH": 6602, "BSTAR": 0, "MEAN_MOTION_DOT": -2.31e-06, "MEAN_MOTION_DDOT": 0}, "tle": {"line1": "1 32388U 07063B   25354.43893471 -.00000231  00000+0  00000+0 0  9993", "line2": "2 32388   2.1405  82.8790 0004587 193.7157 256.9119  1.00271723 66029"}}, "geometry": {"type": "Point", "coordinates": [-92.37037181265165, -0.20482238244597675]}}, {"type": "Feature", "properties": {"norad_id": 32729, "name": "DIRECTV 11", "group": "intelsat", "lat": -0.018994806670410595, "lon": -117.75065014294728, "alt_km": 35780.359448503514, "timestamp": "2025-12-20T16:47:35.958745+00:00", "meta": {"OBJECT_NAME": "DIRECTV 11", "OBJECT_ID": "2008-013A", "EPOCH": "2025-12-20T12:09:57.854304", "MEAN_MOTION": 1.00281934, "ECCENTRICITY": 6.96e-05, "INCLINATION": 0.0453, "RA_OF_ASC_NODE": 198.5655, "ARG_OF_PERICENTER": 32.627, "MEAN_ANOMALY": 301.4589, "EPHEMERIS_TYPE": 0, "CLASSIFICATION_TYPE": "U", "NORAD_CAT_ID": 32729, "ELEMENT_SET_NO": 999, "REV_AT_EPOCH": 4380, "BSTAR": 0, "MEAN_MOTION_DOT": -1.03e-06, "MEAN_MOTION_DDOT": 0}, "tle": {"line1": "1 32729U 08013A   25354.50691961 -.00000103  00000+0  00000+0 0  9994", "line2": "2 32729   0.0453 198.5655 0000696  32.6270 301.4589  1.00281934 43800"}}, "geometry": {"type": "Point", "coordinates": [-117.75065014294728, -0.018994806670410595]}}, {"type": "Feature", "properties": {"norad_id": 32951, "name": "GALAXY 18 (G-18)", "group": "intelsat", "lat": -0.005664538861481315, "lon": -141.6167180510767, "alt_km": 35779.51183453141, "timestamp": "2025-12-20T16:47:35.958757+00:00", "meta": {"OBJECT_NAME": "GALAXY 18 (G-18)", "OBJECT_ID": "2008-024A", "EPOCH": "2025-12-20T10:15:38.712096", "MEAN_MOTION": 1.00271052, "ECCENTRICITY": 0.0002828, "INCLINATION": 0.0144, "RA_OF_ASC_NODE": 55.5326, "ARG_OF_PERICENTER": 218.577, "MEAN_ANOMALY": 206.0538, "EPHEMERIS_TYPE": 0, "CLASSIFICATION_TYPE": "U", "NORAD_CAT_ID": 32951, "ELEMENT_SET_NO": 999, "REV_AT_EPOCH": 4406, "BSTAR": 0, "MEAN_MOTION_DOT": 4.9e-07, "MEAN_MOTION_DDOT": 0}, "tle": {"line1": "1 32951U 08024A   25354.42753139  .00000049  00000+0  00000+0 0  9998", "line2": "2 32951   0.0144  55.5326 0002828 218.5770 206.0538  1.00271052 44063"}}, "geometry": {"type": "Point", "coordinates": [-141.6167180510767, -0.005664538861481315]}}]}